{
  "links" : {
    "next" : "https://api.nasa.gov/neo/rest/v1/feed?start_date=2003-06-16&end_date=2003-06-16&detailed=true&api_key=t0TVs3DtDT2H8Oy2Zy8m2eVrNsAVKAexjcZXUckd",
    "prev" : "https://api.nasa.gov/neo/rest/v1/feed?start_date=2003-06-14&end_date=2003-06-14&detailed=true&api_key=t0TVs3DtDT2H8Oy2Zy8m2eVrNsAVKAexjcZXUckd",
    "self" : "https://api.nasa.gov/neo/rest/v1/feed?start_date=2003-06-15&end_date=2003-06-15&detailed=true&api_key=t0TVs3DtDT2H8Oy2Zy8m2eVrNsAVKAexjcZXUckd"
  },
  "element_count" : 5,
  "near_earth_objects" : {
    "2003-06-15" : [ {
      "links" : {
        "self" : "https://api.nasa.gov/neo/rest/v1/neo/3619726?api_key=t0TVs3DtDT2H8Oy2Zy8m2eVrNsAVKAexjcZXUckd"
      },
      "neo_reference_id" : "3619726",
      "name" : "(2012 XF55)",
      "nasa_jpl_url" : "http://ssd.jpl.nasa.gov/sbdb.cgi?sstr=3619726",
      "absolute_magnitude_h" : 22.8,
      "estimated_diameter" : {
        "kilometers" : {
          "estimated_diameter_min" : 0.0732073989,
          "estimated_diameter_max" : 0.1636967205
        },
        "meters" : {
          "estimated_diameter_min" : 73.2073989347,
          "estimated_diameter_max" : 163.696720474
        },
        "miles" : {
          "estimated_diameter_min" : 0.0454889547,
          "estimated_diameter_max" : 0.1017163949
        },
        "feet" : {
          "estimated_diameter_min" : 240.181762721,
          "estimated_diameter_max" : 537.0627483999
        }
      },
      "is_potentially_hazardous_asteroid" : false,
      "close_approach_data" : [ {
        "close_approach_date" : "2003-06-15",
        "epoch_date_close_approach" : 1055660400000,
        "relative_velocity" : {
          "kilometers_per_second" : "4.9269328586",
          "kilometers_per_hour" : "17736.958290879",
          "miles_per_hour" : "11021.056111352"
        },
        "miss_distance" : {
          "astronomical" : "0.3522258096",
          "lunar" : "137.015838623",
          "kilometers" : "52692232",
          "miles" : "32741434"
        },
        "orbiting_body" : "Earth"
      } ],
      "orbital_data" : {
        "orbit_id" : "21",
        "orbit_determination_date" : "2017-04-06 08:47:46",
        "orbit_uncertainty" : "3",
        "minimum_orbit_intersection" : ".0216763",
        "jupiter_tisserand_invariant" : "5.037",
        "epoch_osculation" : "2458000.5",
        "eccentricity" : ".2501891769859851",
        "semi_major_axis" : "1.275897453869334",
        "inclination" : "1.540417016886005",
        "ascending_node_longitude" : "251.7518106765609",
        "orbital_period" : "526.4075178931737",
        "perihelion_distance" : ".9566817199672515",
        "perihelion_argument" : "267.3315752596933",
        "aphelion_distance" : "1.595113187771417",
        "perihelion_time" : "2457940.870684619715",
        "mean_anomaly" : "40.77934453295362",
        "mean_motion" : ".6838808105188506",
        "equinox" : "J2000"
      }
    }, {
      "links" : {
        "self" : "https://api.nasa.gov/neo/rest/v1/neo/3715468?api_key=t0TVs3DtDT2H8Oy2Zy8m2eVrNsAVKAexjcZXUckd"
      },
      "neo_reference_id" : "3715468",
      "name" : "(2015 GU)",
      "nasa_jpl_url" : "http://ssd.jpl.nasa.gov/sbdb.cgi?sstr=3715468",
      "absolute_magnitude_h" : 28.4,
      "estimated_diameter" : {
        "kilometers" : {
          "estimated_diameter_min" : 0.0055533491,
          "estimated_diameter_max" : 0.0124176661
        },
        "meters" : {
          "estimated_diameter_min" : 5.5533491158,
          "estimated_diameter_max" : 12.4176661257
        },
        "miles" : {
          "estimated_diameter_min" : 0.0034506901,
          "estimated_diameter_max" : 0.0077159776
        },
        "feet" : {
          "estimated_diameter_min" : 18.2196499131,
          "estimated_diameter_max" : 40.740375732
        }
      },
      "is_potentially_hazardous_asteroid" : false,
      "close_approach_data" : [ {
        "close_approach_date" : "2003-06-15",
        "epoch_date_close_approach" : 1055660400000,
        "relative_velocity" : {
          "kilometers_per_second" : "9.6045709041",
          "kilometers_per_hour" : "34576.4552549227",
          "miles_per_hour" : "21484.4646554824"
        },
        "miss_distance" : {
          "astronomical" : "0.0935038635",
          "lunar" : "36.3730010986",
          "kilometers" : "13987979",
          "miles" : "8691727"
        },
        "orbiting_body" : "Earth"
      } ],
      "orbital_data" : {
        "orbit_id" : "5",
        "orbit_determination_date" : "2017-04-06 08:34:32",
        "orbit_uncertainty" : "6",
        "minimum_orbit_intersection" : ".000380249",
        "jupiter_tisserand_invariant" : "3.706",
        "epoch_osculation" : "2458000.5",
        "eccentricity" : ".5358372160472362",
        "semi_major_axis" : "1.945787116814971",
        "inclination" : "2.420357772334288",
        "ascending_node_longitude" : "21.40922350172259",
        "orbital_period" : "991.38287393771",
        "perihelion_distance" : ".9031619651202584",
        "perihelion_argument" : "224.4985185520227",
        "aphelion_distance" : "2.988412268509683",
        "perihelion_time" : "2458149.579319849544",
        "mean_anomaly" : "305.8649563587197",
        "mean_motion" : ".3631291294856677",
        "equinox" : "J2000"
      }
    } ]
  }
}